[{"OBJECT_NAME":"STARLINK-34236","OBJECT_ID":"2025-144V","EPOCH":"2026-03-09T13:42:59.202720","MEAN_MOTION":15.30196896,"ECCENTRICITY":0.0001155,"INCLINATION":53.16,"RA_OF_ASC_NODE":181.5955,"ARG_OF_PERICENTER":78.1403,"MEAN_ANOMALY":281.9727,"EPHEMERIS_TYPE":0,"CLASSIFICATION_TYPE":"U","NORAD_CAT_ID":64743,"ELEMENT_SET_NO":999,"REV_AT_EPOCH":3969,"BSTAR":0.00070619,"MEAN_MOTION_DOT":0.00020612,"MEAN_MOTION_DDOT":0},{"OBJECT_NAME":"ARIANE 5 DEB","OBJECT_ID":"2007-044E","EPOCH":"2026-03-09T09:02:57.514848","MEAN_MOTION":2.29184035,"ECCENTRICITY":0.71940138,"INCLINATION":4.2775,"RA_OF_ASC_NODE":70.4996,"ARG_OF_PERICENTER":268.288,"MEAN_ANOMALY":16.0943,"EPHEMERIS_TYPE":0,"CLASSIFICATION_TYPE":"U","NORAD_CAT_ID":48422,"ELEMENT_SET_NO":999,"REV_AT_EPOCH":10264,"BSTAR":0.001814275,"MEAN_MOTION_DOT":2.57e-6,"MEAN_MOTION_DDOT":0}]
